{
  "type": "FeatureCollection",
  "features": [
    {
      "type": "Feature",
      "properties": {
        "norad_id": 24876,
        "name": "GPS BIIR-2  (PRN 13)",
        "group": "gps-ops",
        "lat": 51.61791729513145,
        "lon": 164.36566611754978,
        "alt_km": 19927.16627653506,
        "timestamp": "2025-12-17T19:34:08.297199+00:00",
        "meta_object_name": "GPS BIIR-2  (PRN 13)",
        "meta_object_id": "1997-035A",
        "meta_epoch": "2025-12-16T17:18:41.060448",
        "meta_mean_motion": 2.00563709,
        "meta_eccentricity": 0.00967839,
        "meta_inclination": 55.8971,
        "meta_ra_of_asc_node": 105.7131,
        "meta_arg_of_pericenter": 56.9876,
        "meta_mean_anomaly": 303.9087,
        "meta_ephemeris_type": 0,
        "meta_classification_type": "U",
        "meta_norad_cat_id": 24876,
        "meta_element_set_no": 999,
        "meta_rev_at_epoch": 20829,
        "meta_bstar": 0,
        "meta_mean_motion_dot": -2.3e-07,
        "meta_mean_motion_ddot": 0,
        "tle_line1": "1 24876U 97035A   25350.72130857 -.00000023  00000+0  00000+0 0  9993",
        "tle_line2": "2 24876  55.8971 105.7131 0096783  56.9876 303.9087  2.00563709208299"
      },
      "geometry": {
        "type": "Point",
        "coordinates": [
          164.36566611754978,
          51.61791729513145
        ]
      }
    },
    {
      "type": "Feature",
      "properties": {
        "norad_id": 26360,
        "name": "GPS BIIR-4  (PRN 20)",
        "group": "gps-ops",
        "lat": 14.326533713900586,
        "lon": -163.63301614482972,
        "alt_km": 20161.88254317688,
        "timestamp": "2025-12-17T19:34:08.297226+00:00",
        "meta_object_name": "GPS BIIR-4  (PRN 20)",
        "meta_object_id": "2000-025A",
        "meta_epoch": "2025-12-16T19:52:20.548704",
        "meta_mean_motion": 2.00567475,
        "meta_eccentricity": 0.00388903,
        "meta_inclination": 55.0476,
        "meta_ra_of_asc_node": 26.6725,
        "meta_arg_of_pericenter": 242.3816,
        "meta_mean_anomaly": 287.5593,
        "meta_ephemeris_type": 0,
        "meta_classification_type": "U",
        "meta_norad_cat_id": 26360,
        "meta_element_set_no": 999,
        "meta_rev_at_epoch": 18761,
        "meta_bstar": 0,
        "meta_mean_motion_dot": -8.3e-07,
        "meta_mean_motion_ddot": 0,
        "tle_line1": "1 26360U 00025A   25350.82801561 -.00000083  00000+0  00000+0 0  9990",
        "tle_line2": "2 26360  55.0476  26.6725 0038890 242.3816 287.5593  2.00567475187616"
      },
      "geometry": {
        "type": "Point",
        "coordinates": [
          -163.63301614482972,
          14.326533713900586
        ]
      }
    },
    {
      "type": "Feature",
      "properties": {
        "norad_id": 26407,
        "name": "GPS BIIR-5  (PRN 22)",
        "group": "gps-ops",
        "lat": 3.0087002802114142,
        "lon": -135.50462734914063,
        "alt_km": 20020.61077708097,
        "timestamp": "2025-12-17T19:34:08.297242+00:00",
        "meta_object_name": "GPS BIIR-5  (PRN 22)",
        "meta_object_id": "2000-040A",
        "meta_epoch": "2025-12-16T19:48:16.745184",
        "meta_mean_motion": 2.00568089,
        "meta_eccentricity": 0.01257985,
        "meta_inclination": 54.8898,
        "meta_ra_of_asc_node": 222.4065,
        "meta_arg_of_pericenter": 301.879,
        "meta_mean_anomaly": 65.6542,
        "meta_ephemeris_type": 0,
        "meta_classification_type": "U",
        "meta_norad_cat_id": 26407,
        "meta_element_set_no": 999,
        "meta_rev_at_epoch": 18629,
        "meta_bstar": 0,
        "meta_mean_motion_dot": 6.6e-07,
        "meta_mean_motion_ddot": 0,
        "tle_line1": "1 26407U 00040A   25350.82519381  .00000066  00000+0  00000+0 0  9995",
        "tle_line2": "2 26407  54.8898 222.4065 0125798 301.8790  65.6542  2.00568089186296"
      },
      "geometry": {
        "type": "Point",
        "coordinates": [
          -135.50462734914063,
          3.0087002802114142
        ]
      }
    },
    {
      "type": "Feature",
      "properties": {
        "norad_id": 27663,
        "name": "GPS BIIR-8  (PRN 16)",
        "group": "gps-ops",
        "lat": 31.67292649783974,
        "lon": 16.512987981177425,
        "alt_km": 20159.70719973114,
        "timestamp": "2025-12-17T19:34:08.297256+00:00",
        "meta_object_name": "GPS BIIR-8  (PRN 16)",
        "meta_object_id": "2003-005A",
        "meta_epoch": "2025-12-16T09:06:39.754656",
        "meta_mean_motion": 2.00570777,
        "meta_eccentricity": 0.01475932,
        "meta_inclination": 54.9225,
        "meta_ra_of_asc_node": 222.2335,
        "meta_arg_of_pericenter": 51.8511,
        "meta_mean_anomaly": 129.8718,
        "meta_ephemeris_type": 0,
        "meta_classification_type": "U",
        "meta_norad_cat_id": 27663,
        "meta_element_set_no": 999,
        "meta_rev_at_epoch": 16764,
        "meta_bstar": 0,
        "meta_mean_motion_dot": 6.3e-07,
        "meta_mean_motion_ddot": 0,
        "tle_line1": "1 27663U 03005A   25350.37962679  .00000063  00000+0  00000+0 0  9993",
        "tle_line2": "2 27663  54.9225 222.2335 0147593  51.8511 129.8718  2.00570777167647"
      },
      "geometry": {
        "type": "Point",
        "coordinates": [
          16.512987981177425,
          31.67292649783974
        ]
      }
    },
    {
      "type": "Feature",
      "properties": {
        "norad_id": 28190,
        "name": "GPS BIIR-11 (PRN 19)",
        "group": "gps-ops",
        "lat": -46.35839260979228,
        "lon": -124.24257710393505,
        "alt_km": 20372.095818342426,
        "timestamp": "2025-12-17T19:34:08.297268+00:00",
        "meta_object_name": "GPS BIIR-11 (PRN 19)",
        "meta_object_id": "2004-009A",
        "meta_epoch": "2025-12-14T15:49:47.343936",
        "meta_mean_motion": 2.00560762,
        "meta_eccentricity": 0.01083648,
        "meta_inclination": 54.9839,
        "meta_ra_of_asc_node": 283.1415,
        "meta_arg_of_pericenter": 167.6892,
        "meta_mean_anomaly": 10.6801,
        "meta_ephemeris_type": 0,
        "meta_classification_type": "U",
        "meta_norad_cat_id": 28190,
        "meta_element_set_no": 999,
        "meta_rev_at_epoch": 15924,
        "meta_bstar": 0,
        "meta_mean_motion_dot": -7.9e-07,
        "meta_mean_motion_ddot": 0,
        "tle_line1": "1 28190U 04009A   25348.65957574 -.00000079  00000+0  00000+0 0  9998",
        "tle_line2": "2 28190  54.9839 283.1415 0108364 167.6892  10.6801  2.00560762159240"
      },
      "geometry": {
        "type": "Point",
        "coordinates": [
          -124.24257710393505,
          -46.35839260979228
        ]
      }
    },
    {
      "type": "Feature",
      "properties": {
        "norad_id": 28474,
        "name": "GPS BIIR-13 (PRN 02)",
        "group": "gps-ops",
        "lat": -1.0566987021027223,
        "lon": -28.545338633342954,
        "alt_km": 19881.860434582864,
        "timestamp": "2025-12-17T19:34:08.297280+00:00",
        "meta_object_name": "GPS BIIR-13 (PRN 02)",
        "meta_object_id": "2004-045A",
        "meta_epoch": "2025-12-17T07:31:38.616960",
        "meta_mean_motion": 2.00569835,
        "meta_eccentricity": 0.01708534,
        "meta_inclination": 55.2384,
        "meta_ra_of_asc_node": 332.2217,
        "meta_arg_of_pericenter": 309.4512,
        "meta_mean_anomaly": 45.5013,
        "meta_ephemeris_type": 0,
        "meta_classification_type": "U",
        "meta_norad_cat_id": 28474,
        "meta_element_set_no": 999,
        "meta_rev_at_epoch": 15477,
        "meta_bstar": 0,
        "meta_mean_motion_dot": -8.9e-07,
        "meta_mean_motion_ddot": 0,
        "tle_line1": "1 28474U 04045A   25351.31364140 -.00000089  00000+0  00000+0 0  9992",
        "tle_line2": "2 28474  55.2384 332.2217 0170853 309.4512  45.5013  2.00569835154772"
      },
      "geometry": {
        "type": "Point",
        "coordinates": [
          -28.545338633342954,
          -1.0566987021027223
        ]
      }
    },
    {
      "type": "Feature",
      "properties": {
        "norad_id": 28874,
        "name": "GPS BIIRM-1 (PRN 17)",
        "group": "gps-ops",
        "lat": -34.075260740143534,
        "lon": -107.73563463693255,
        "alt_km": 19863.023300693272,
        "timestamp": "2025-12-17T19:34:08.297292+00:00",
        "meta_object_name": "GPS BIIRM-1 (PRN 17)",
        "meta_object_id": "2005-038A",
        "meta_epoch": "2025-12-15T21:22:37.236864",
        "meta_mean_motion": 2.00578274,
        "meta_eccentricity": 0.01315557,
        "meta_inclination": 55.0291,
        "meta_ra_of_asc_node": 280.574,
        "meta_arg_of_pericenter": 293.6034,
        "meta_mean_anomaly": 72.8859,
        "meta_ephemeris_type": 0,
        "meta_classification_type": "U",
        "meta_norad_cat_id": 28874,
        "meta_element_set_no": 999,
        "meta_rev_at_epoch": 14816,
        "meta_bstar": 0,
        "meta_mean_motion_dot": -6.8e-07,
        "meta_mean_motion_ddot": 0,
        "tle_line1": "1 28874U 05038A   25349.89070876 -.00000068  00000+0  00000+0 0  9996",
        "tle_line2": "2 28874  55.0291 280.5740 0131555 293.6034  72.8859  2.00578274148160"
      },
      "geometry": {
        "type": "Point",
        "coordinates": [
          -107.73563463693255,
          -34.075260740143534
        ]
      }
    }
  ]
}